1 40036U 14033AC  21312.69177724  .00001453  00000-0  15140-3 0  9993
2 40036  97.9896 254.0173 0012971  52.1773 308.0616 14.91357379401097
1 40036U 14033AC  21313.09434167  .00001463  00000-0  15232-3 0  9998
2 40036  97.9896 254.4250 0012947  51.0100 309.2269 14.91358772401659
1 40036U 14033AC  21313.56400000  .00001449  00000-0  15093-3 0  9998
2 40036  97.9896 254.9007 0012922  49.6389 310.5955 14.91360059401220
1 40036U 14033AC  21313.69818798  .00001468  00000-0  15290-3 0  9999
2 40036  97.9896 255.0366 0012913  49.2493 310.9844 14.91360532401241
1 40036U 14033AC  21314.36912782  .00001812  00000-0  18728-3 0  9994
2 40036  97.9900 255.7163 0012937  47.2626 312.9679 14.91363629401845
1 40036U 14033AC  21314.83878456  .00001717  00000-0  17775-3 0  9990
2 40036  97.9901 256.1919 0012908  45.8374 314.3902 14.91364975401415
1 40036U 14033AC  21315.37553455  .00001703  00000-0  17635-3 0  9999
2 40036  97.9902 256.7356 0012884  44.2494 315.9752 14.91366830401991
1 40036U 14033AC  21315.57681567  .00001678  00000-0  17388-3 0  9993
2 40036  97.9902 256.9394 0012869  43.6503 316.5730 14.91367354401526
1 40036U 14033AC  21315.84519015  .00001659  00000-0  17199-3 0  9990
2 40036  97.9902 257.2112 0012850  42.8209 317.4008 14.91368217401563
1 40036U 14033AC  21316.38193907  .00001664  00000-0  17245-3 0  9996
2 40036  97.9903 257.7549 0012815  41.1983 319.0199 14.91369942402145
1 40036U 14033AC  21316.58321968  .00001640  00000-0  17008-3 0  9999
2 40036  97.9903 257.9587 0012800  40.5823 319.6347 14.91370461401675
1 40036U 14033AC  21316.78450021  .00001631  00000-0  16914-3 0  9999
2 40036  97.9903 258.1626 0012790  39.9676 320.2481 14.91371086401703
1 40036U 14033AC  21317.58962148  .00001575  00000-0  16354-3 0  9991
2 40036  97.9904 258.9781 0012739  37.5335 322.6769 14.91373391401822
1 40036U 14033AC  21317.72380809  .00001576  00000-0  16363-3 0  9996
2 40036  97.9904 259.1140 0012723  37.0867 323.1228 14.91373879402347
1 40036U 14033AC  21317.79090169  .00001457  00000-0  15169-3 0  9991
2 40036  97.9904 259.1819 0012724  36.8960 323.3130 14.91373398401857
1 40036U 14033AC  21318.32764807  .00001545  00000-0  16051-3 0  9997
2 40036  97.9905 259.7256 0012690  35.2815 324.9240 14.91375673401939
1 40036U 14033AC  21318.79730055  .00001494  00000-0  15538-3 0  9998
2 40036  97.9905 260.2013 0012667  33.8682 326.3342 14.91377017402009
1 40036U 14033AC  21318.79730055  .00001494  00000-0  15538-3 0  9998
2 40036  97.9905 260.2013 0012667  33.8682 326.3342 14.91377017402504
1 40036U 14033AC  21319.33404593  .00001490  00000-0  15497-3 0  9994
2 40036  97.9906 260.7449 0012636  32.2718 327.9270 14.91378772402081
1 40036U 14033AC  21319.80369752  .00001439  00000-0  14989-3 0  9991
2 40036  97.9907 261.2207 0012609  30.8546 329.3411 14.91380073402151
1 40036U 14033AC  21319.80369752  .00001439  00000-0  14989-3 0  9991
2 40036  97.9907 261.2207 0012609  30.8546 329.3411 14.91380073402656
1 40036U 14033AC  21320.60881285  .00001448  00000-0  15080-3 0  9994
2 40036  97.9908 262.0362 0012564  28.4521 331.7380 14.91382993402277
1 40036U 14033AC  21320.81009150  .00001434  00000-0  14934-3 0  9992
2 40036  97.9909 262.2400 0012549  27.8304 332.3582 14.91383625402306
1 40036U 14033AC  21320.81009150  .00001434  00000-0  14934-3 0  9992
2 40036  97.9909 262.2400 0012549  27.8304 332.3582 14.91383625402801
1 40036U 14033AC  21321.34683450  .00001329  00000-0  13888-3 0  9992
2 40036  97.9910 262.7837 0012516  26.2289 333.9561 14.91384826402382
1 40036U 14033AC  21321.81648447  .00001247  00000-0  13066-3 0  9998
2 40036  97.9911 263.2594 0012492  24.8030 335.3786 14.91385767402458
1 40036U 14033AC  21321.81648447  .00001247  00000-0  13066-3 0  9998
2 40036  97.9911 263.2594 0012492  24.8030 335.3786 14.91385767402953
1 40036U 14033AC  21322.55450476  .00001194  00000-0  12536-3 0  9995
2 40036  97.9913 264.0070 0012448  22.6054 337.5710 14.91387685402565
1 40036U 14033AC  21322.82287554  .00001145  00000-0  12046-3 0  9992
2 40036  97.9913 264.2789 0012431  21.7678 338.4066 14.91388206402607
1 40036U 14033AC  21323.15833897  .00001242  00000-0  13020-3 0  9997
2 40036  97.9914 264.6187 0012410  20.7559 339.4160 14.91389625403151
1 40036U 14033AC  21323.29252422  .00001244  00000-0  13041-3 0  9996
2 40036  97.9914 264.7546 0012400  20.3559 339.8150 14.91390034402671
1 40036U 14033AC  21323.82926503  .00001272  00000-0  13313-3 0  9996
2 40036  97.9916 265.2984 0012361  18.6688 341.4981 14.91391605402759
1 40036U 14033AC  21324.29891296  .00001263  00000-0  13222-3 0  9997
2 40036  97.9917 265.7742 0012308  17.2250 342.9384 14.91392734402823
1 40036U 14033AC  21324.29891296  .00001263  00000-0  13222-3 0  9997
2 40036  97.9917 265.7742 0012308  17.2250 342.9384 14.91392734403329
1 40036U 14033AC  21324.83565285  .00001260  00000-0  13193-3 0  9997
2 40036  97.9918 266.3179 0012270  15.5192 344.6399 14.91394065402902
1 40036U 14033AC  21325.30529980  .00001333  00000-0  13921-3 0  9992
2 40036  97.9919 266.7937 0012230  14.0480 346.1075 14.91395620403478
1 40036U 14033AC  21325.57366950  .00001350  00000-0  14097-3 0  9991
2 40036  97.9919 267.0655 0012209  13.1930 346.9605 14.91396288403013
1 40036U 14033AC  21325.77494648  .00001370  00000-0  14293-3 0  9999
2 40036  97.9920 267.2694 0012194  12.5208 347.6310 14.91396931403043
1 40036U 14033AC  21326.31168488  .00001437  00000-0  14961-3 0  9996
2 40036  97.9921 267.8132 0012149  10.8380 349.3097 14.91398628403124
1 40036U 14033AC  21326.31168488  .00001437  00000-0  14961-3 0  9996
2 40036  97.9921 267.8132 0012149  10.8380 349.3097 14.91398628403629
1 40036U 14033AC  21326.78133085  .00001411  00000-0  14708-3 0  9993
2 40036  97.9922 268.2890 0012114   9.2692 350.8747 14.91399577403191
1 40036U 14033AC  21327.31806813  .00001454  00000-0  15132-3 0  9998
2 40036  97.9923 268.8328 0012065   7.5467 352.5931 14.91401228403775
1 40036U 14033AC  21327.58643645  .00001499  00000-0  15584-3 0  9999
2 40036  97.9923 269.1047 0012043   6.6841 353.4535 14.91402209403319
1 40036U 14033AC  21327.78771267  .00001495  00000-0  15542-3 0  9993
2 40036  97.9923 269.3085 0012029   6.0376 354.0985 14.91402774403340
1 40036U 14033AC  21328.05608080  .00001528  00000-0  15877-3 0  9994
2 40036  97.9924 269.5804 0012005   5.1721 354.9618 14.91403715403382
1 40036U 14033AC  21328.65990856  .00001477  00000-0  15367-3 0  9992
2 40036  97.9924 270.1922 0011956   3.1980 356.9312 14.91405224403470
1 40036U 14033AC  21328.65990856  .00001477  00000-0  15367-3 0  9992
2 40036  97.9924 270.1922 0011956   3.1980 356.9312 14.91405224403975
1 40036U 14033AC  21329.06245981  .00001431  00000-0  14899-3 0  9999
2 40036  97.9925 270.6000 0011921   1.8894 358.2367 14.91406265403532
1 40036U 14033AC  21329.80046934  .00001537  00000-0  15959-3 0  9993
2 40036  97.9926 271.3477 0011861 359.4842   0.6362 14.91409312403648
1 40036U 14033AC  21329.80046934  .00001537  00000-0  15959-3 0  9993
2 40036  97.9926 271.3477 0011861 359.4842   0.6362 14.91409312404144
1 40036U 14033AC  21330.27011120  .00001631  00000-0  16905-3 0  9992
2 40036  97.9926 271.8236 0011820 358.0133   2.1036 14.91411423403718
1 40036U 14033AC  21330.60556923  .00001660  00000-0  17189-3 0  9991
2 40036  97.9927 272.1634 0011793 356.9360   3.1783 14.91412755403767
1 40036U 14033AC  21331.07521008  .00001446  00000-0  15052-3 0  9998
2 40036  97.9927 272.6393 0011753 355.4490   4.6619 14.91413315404339
1 40036U 14033AC  21331.27648477  .00001588  00000-0  16473-3 0  9995
2 40036  97.9927 272.8432 0011738 354.8374   5.2721 14.91414748403861
1 40036U 14033AC  21331.81321600  .00001657  00000-0  17156-3 0  9997
2 40036  97.9928 273.3870 0011696 353.1078   6.9977 14.91417128403945
1 40036U 14033AC  21332.08158184  .00001443  00000-0  15024-3 0  9997
2 40036  97.9928 273.6589 0011671 352.2627   7.8409 14.91416854404483
1 40036U 14033AC  21332.55122081  .00001581  00000-0  16401-3 0  9999
2 40036  97.9929 274.1348 0011629 350.7401   9.3601 14.91419353404050
1 40036U 14033AC  21332.81958585  .00001572  00000-0  16306-3 0  9998
2 40036  97.9929 274.4067 0011608 349.8513  10.2469 14.91420277404095
1 40036U 14033AC  21333.08795113  .00001483  00000-0  15420-3 0  9991
2 40036  97.9930 274.6787 0011581 348.9500  11.1462 14.91420621404630
1 40036U 14033AC  21333.28922392  .00001710  00000-0  17686-3 0  9993
2 40036  97.9931 274.8826 0011564 348.3250  11.7698 14.91422812404163
1 40036U 14033AC  21333.82595327  .00001604  00000-0  16625-3 0  9991
2 40036  97.9931 275.4264 0011520 346.5506  13.5403 14.91424024404242
1 40036U 14033AC  21334.09431760  .00001646  00000-0  17047-3 0  9996
2 40036  97.9932 275.6984 0011493 345.6685  14.4205 14.91425153404784
1 40036U 14033AC  21334.29559063  .00001658  00000-0  17171-3 0  9996
2 40036  97.9932 275.9023 0011477 345.0080  15.0796 14.91425959404311
1 40036U 14033AC  21334.63104572  .00001687  00000-0  17456-3 0  9993
2 40036  97.9933 276.2422 0011448 343.8593  16.2258 14.91427190404362
1 40036U 14033AC  21335.10068270  .00001558  00000-0  16166-3 0  9994
2 40036  97.9934 276.7181 0011408 342.3054  17.7765 14.91427966404935
1 40036U 14033AC  21335.30195410  .00002048  00000-0  21065-3 0  9992
2 40036  97.9934 276.9220 0011389 341.6436  18.4369 14.91431657404463
1 40036U 14033AC  21335.83868117  .00001891  00000-0  19492-3 0  9997
2 40036  97.9935 277.4659 0011349 339.8057  20.2710 14.91432469404542
1 40036U 14033AC  21336.10704403  .00001921  00000-0  19795-3 0  9995
2 40036  97.9935 277.7378 0011323 338.8973  21.1776 14.91433584405082
1 40036U 14033AC  21336.44249721  .00002077  00000-0  21355-3 0  9997
2 40036  97.9936 278.0778 0011299 337.7203  22.3523 14.91435648404633
1 40036U 14033AC  21336.84504110  .00001920  00000-0  19785-3 0  9997
2 40036  97.9936 278.4857 0011268 336.3363  23.7335 14.91436201404691
1 40036U 14033AC  21337.11340331  .00001928  00000-0  19856-3 0  9998
2 40036  97.9937 278.7576 0011245 335.4439  24.6242 14.91437214405235
